{
    "links": {
        "self": "http://www.neowsapp.com/rest/v1/neo/3508152?api_key=iIulBulltgU6a56xZRHN4H3l9WmuAYTsLGpBGhQ2"
    },
    "id": "3508152",
    "neo_reference_id": "3508152",
    "name": "(2010 DE1)",
    "designation": "2010 DE1",
    "nasa_jpl_url": "http://ssd.jpl.nasa.gov/sbdb.cgi?sstr=3508152",
    "absolute_magnitude_h": 23.9,
    "estimated_diameter": {
        "kilometers": {
            "estimated_diameter_min": 0.04411182,
            "estimated_diameter_max": 0.0986370281
        },
        "meters": {
            "estimated_diameter_min": 44.1118199997,
            "estimated_diameter_max": 98.6370281305
        },
        "miles": {
            "estimated_diameter_min": 0.0274098057,
            "estimated_diameter_max": 0.0612901888
        },
        "feet": {
            "estimated_diameter_min": 144.7238235278,
            "estimated_diameter_max": 323.6123073718
        }
    },
    "is_potentially_hazardous_asteroid": false,
    "close_approach_data": [
        {
            "close_approach_date": "2010-02-13",
            "close_approach_date_full": "2010-Feb-13 23:31",
            "epoch_date_close_approach": 1266103860000,
            "relative_velocity": {
                "kilometers_per_second": "12.1210717445",
                "kilometers_per_hour": "43635.8582802565",
                "miles_per_hour": "27113.6253853072"
            },
            "miss_distance": {
                "astronomical": "0.1938706488",
                "lunar": "75.4156823832",
                "kilometers": "29002636.115998056",
                "miles": "18021402.4189469328"
            },
            "orbiting_body": "Earth"
        }
    ],
    "orbital_data": {
        "orbit_id": "6",
        "orbit_determination_date": "2017-04-06 08:58:17",
        "first_observation_date": "2010-02-16",
        "last_observation_date": "2010-02-18",
        "data_arc_in_days": 2,
        "observations_used": 19,
        "orbit_uncertainty": "9",
        "minimum_orbit_intersection": ".193699",
        "jupiter_tisserand_invariant": "4.435",
        "epoch_osculation": "2455244.5",
        "eccentricity": ".212592570059453",
        "semi_major_axis": "1.499495964153033",
        "inclination": "23.17524417729428",
        "ascending_node_longitude": "144.9976483811468",
        "orbital_period": "670.6815798444542",
        "perihelion_distance": "1.180714263339962",
        "perihelion_argument": "355.9902585528457",
        "aphelion_distance": "1.818277664966103",
        "perihelion_time": "2455236.387293814906",
        "mean_anomaly": "4.354636111090431",
        "mean_motion": ".536767388308908",
        "equinox": "J2000",
        "orbit_class": {
            "orbit_class_type": "AMO",
            "orbit_class_description": "Near-Earth asteroid orbits similar to that of 1221 Amor",
            "orbit_class_range": "1.017 AU < q (perihelion) < 1.3 AU"
        }
    },
    "is_sentry_object": false
}